NORAD_CAT_ID,OBJECT_NAME,OBJECT_TYPE,EPOCH,MEAN_MOTION,ECCENTRICITY,INCLINATION,RA_OF_ASC_NODE,ARG_OF_PERICENTER,MEAN_ANOMALY,BSTAR,MEAN_MOTION_DOT,MEAN_MOTION_DDOT,TLE_LINE0,TLE_LINE1,TLE_LINE2,SEMIMAJOR_AXIS,PERIOD,APOGEE,PERIGEE,DECAYED
52380.0,STARLINK-3793,PAYLOAD,2022-05-15 22:00:00,15.73344406,0.0001314,53.2139,356.8895,134.3737,323.7647,1.4920999999999991e-05,1.486e-05,0.0,0 STARLINK-3793,1 52380U 22045BB  22135.91667824  .00001486  00000-0  14921-4 0  9997,2 52380  53.2139 356.8895 0001314 134.3737 323.7647 15.73344406  5075,6727.483,91.525,350.232,348.465,0.0
52380.0,STARLINK-3793,PAYLOAD,2022-05-16 06:00:02,15.73417286,0.0001291999999999,53.2139,355.2388,135.6054,51.6752,-0.00206,-0.00282847,0.0,0 STARLINK-3793,1 52380U 22045BB  22136.25002315 -.00282847  00000-0 -20600-2 0  9996,2 52380  53.2139 355.2388 0001292 135.6054  51.6752 15.73417286  5123,6727.276,91.521,350.01,348.272,0.0
52380.0,STARLINK-3793,PAYLOAD,2022-05-16 14:00:01,15.73194962,0.0001462,53.2142,353.5875,139.6992,136.5823,-0.0016667,-0.00228254,0.0,0 STARLINK-3793,1 52380U 22045BB  22136.58334491 -.00228254  00000-0 -16667-2 0  9995,2 52380  53.2142 353.5875 0001462 139.6992 136.5823 15.73194962  1304,6727.91,91.533,350.7580000000001,348.791,0.0
52380.0,STARLINK-3793,PAYLOAD,2022-05-16 20:00:01,15.73054875,0.0001163,53.2138,352.3521,137.6872,115.2652,-0.00023595,-0.00033396,0.0,0 STARLINK-3793,1 52380U 22045BB  22136.83334491 -.00033396  00000-0 -23595-3 0  9993,2 52380  53.2138 352.3521 0001163 137.6872 115.2652 15.73054875  5213,6728.309,91.542,350.956,349.391,0.0
52380.0,STARLINK-3793,PAYLOAD,2022-05-16 22:00:00,15.73020364,0.000117,53.2139,351.9401,134.6276,230.5214,0.000256,0.00035184,0.0,0 STARLINK-3793,1 52380U 22045BB  22136.91667824  .00035184  00000-0  25600-3 0  9995,2 52380  53.2139 351.9401 0001170 134.6276 230.5214 15.73020364  1306,6728.406999999997,91.544,351.06,349.485,0.0
52380.0,STARLINK-3793,PAYLOAD,2022-05-17 06:00:00,15.73047675,0.0001203,53.2132,350.2898,138.2733,315.5944,0.00055337,0.00077251,0.0,0 STARLINK-3793,1 52380U 22045BB  22137.25001157  .00077251  00000-0  55337-3 0  9995,2 52380  53.2132 350.2898 0001203 138.2733 315.5944 15.73047675  5285,6728.329000000002,91.542,351.004,349.385,0.0
52380.0,STARLINK-3793,PAYLOAD,2022-05-17 14:00:01,15.73135009,0.0001533,53.2135,348.6394,138.1485,44.5344,0.00065637,0.00092257,0.0,0 STARLINK-3793,1 52380U 22045BB  22137.58335648  .00092257  00000-0  65637-3 0  9993,2 52380  53.2135 348.6394 0001533 138.1485  44.5344 15.73135009  1300,6728.08,91.537,350.977,348.914,0.0
52380.0,STARLINK-3793,PAYLOAD,2022-05-17 20:00:01,15.73234455,0.0001449,53.2135,347.4039,126.7312,32.5609,-0.0007925,-0.00110557,0.0,0 STARLINK-3793,1 52380U 22045BB  22137.83334491 -.00110557  00000-0 -79250-3 0  9998,2 52380  53.2135 347.4039 0001449 126.7312  32.5609 15.73234455  5378,6727.797,91.531,350.63699999999994,348.68699999999984,0.0
52380.0,STARLINK-3793,PAYLOAD,2022-05-17 22:00:01,15.73201932,0.0001472,53.2136,346.9919,123.2986,148.3016,-0.00051316,-0.00072032,0.0,0 STARLINK-3793,1 52380U 22045BB  22137.91668981 -.00072032  00000-0 -51316-3 0  9999,2 52380  53.2136 346.9919 0001472 123.2986 148.3016 15.73201932  1306,6727.89,91.533,350.745,348.764,0.0
52380.0,STARLINK-3793,PAYLOAD,2022-05-18 06:00:00,15.73166101,0.0001511,53.2137,345.3411,125.5864,234.8674,0.00032395,0.00045022,0.0,0 STARLINK-3793,1 52380U 22045BB  22138.25001157  .00045022  00000-0  32395-3 0  9996,2 52380  53.2137 345.3411 0001511 125.5864 234.8674 15.73166101  5438,6727.9919999999975,91.535,350.87300000000016,348.84,0.0
52380.0,STARLINK-3793,PAYLOAD,2022-05-18 14:00:01,15.73241791,0.0001555,53.2141,343.6905,130.8525,318.5005,-0.00020644,-0.00029544,0.0,0 STARLINK-3793,1 52380U 22045BB  22138.58334491 -.00029544  00000-0 -20644-3 0  9999,2 52380  53.2141 343.6905 0001555 130.8525 318.5005 15.73241791  1302,6727.776,91.531,350.68699999999984,348.595,0.0
52380.0,STARLINK-3793,PAYLOAD,2022-05-18 20:00:01,15.73227347,0.0001246,53.2138,342.4549,128.7449,297.3351,-0.00072613,-0.00101425,0.0,0 STARLINK-3793,1 52380U 22045BB  22138.83334491 -.00101425  00000-0 -72613-3 0  9999,2 52380  53.2138 342.4549 0001246 128.7449 297.3351 15.73227347  5535,6727.816999999999,91.532,350.52,348.844,0.0
52380.0,STARLINK-3793,PAYLOAD,2022-05-18 22:00:00,15.7320539,0.0001192,53.2139,342.0428,126.6885,51.6305,-0.00063718,-0.00089122,0.0,0 STARLINK-3793,1 52380U 22045BB  22138.91667824 -.00089122  00000-0 -63718-3 0  9992,2 52380  53.2139 342.0428 0001192 126.6885  51.6305 15.73205390  1304,6727.88,91.533,350.547,348.9430000000001,0.0
52380.0,STARLINK-3793,PAYLOAD,2022-05-19 14:00:01,15.73273645,0.0001302,53.2136,338.7413,143.9106,212.3854,0.00048381,0.00068047,0.0,0 STARLINK-3793,1 52380U 22045BB  22139.58335648  .00068047  00000-0  48381-3 0  9992,2 52380  53.2136 338.7413 0001302 143.9106 212.3854 15.73273645  1301,6727.685,91.529,350.426,348.6740000000001,0.0
52380.0,STARLINK-3793,PAYLOAD,2022-05-19 22:00:00,15.73183056,0.000121,53.2138,337.0941,125.1496,319.9248,0.00042735,0.00059739,0.0,0 STARLINK-3793,1 52380U 22045BB  22139.91667824  .00059739  00000-0  42735-3 0  9998,2 52380  53.2138 337.0941 0001210 125.1496 319.9248 15.73183056  5708,6727.943,91.534,350.62300000000016,348.994,0.0
52380.0,STARLINK-3793,PAYLOAD,2022-05-20 14:00:01,15.73232011,0.0001554,53.2143,333.7927,124.3773,138.563,-0.00032026,-0.00045387,0.0,0 STARLINK-3793,1 52380U 22045BB  22140.58334491 -.00045387  00000-0 -32026-3 0  9992,2 52380  53.2143 333.7927 0001554 124.3773 138.5630 15.73232011  5808,6727.804,91.531,350.714,348.62300000000016,0.0
52380.0,STARLINK-3793,PAYLOAD,2022-05-20 22:00:00,15.73176716,0.0001366,53.214,332.1451,114.689,237.2178,0.00028388,0.00039368,0.0,0 STARLINK-3793,1 52380U 22045BB  22140.91667824  .00039368  00000-0  28388-3 0  9994,2 52380  53.2140 332.1451 0001366 114.6890 237.2178 15.73176716  1307,6727.962,91.535,350.746,348.908,0.0
52380.0,STARLINK-3793,PAYLOAD,2022-05-21 06:00:00,15.73195966,0.0001343,53.2136,330.4939,122.9709,317.8557,5.214e-05,6.702e-05,0.0,0 STARLINK-3793,1 52380U 22045BB  22141.25001157  .00006702  00000-0  52140-4 0  9993,2 52380  53.2136 330.4939 0001343 122.9709 317.8557 15.73195966  5915,6727.906999999997,91.533,350.675,348.86800000000005,0.0
52380.0,STARLINK-3793,PAYLOAD,2022-05-21 14:00:01,15.73173692,0.0001826,53.2171,328.8433,113.1359,56.4507,0.0003878,0.00054096,0.0,0 STARLINK-3793,1 52380U 22045BB  22141.58335648  .00054096  00000-0  38780-3 0  9996,2 52380  53.2171 328.8433 0001826 113.1359  56.4507 15.73173692  5961,6727.97,91.535,351.064,348.607,0.0
52380.0,STARLINK-3793,PAYLOAD,2022-05-21 20:00:01,15.73256528,0.0001144,53.2137,327.6086,117.9402,28.5247,-0.00047087,-0.00066343,0.0,0 STARLINK-3793,1 52380U 22045BB  22141.83334491 -.00066343  00000-0 -47087-3 0  9999,2 52380  53.2137 327.6086 0001144 117.9402  28.5247 15.73256528  6005,6727.734,91.53,350.369,348.829,0.0
52380.0,STARLINK-3793,PAYLOAD,2022-05-21 22:00:00,15.73220576,0.0001105,53.2138,327.1966,115.3673,143.3523,-5.7048e-05,-8.625e-05,0.0,0 STARLINK-3793,1 52380U 22045BB  22141.91667824 -.00008625  00000-0 -57048-4 0  9995,2 52380  53.2138 327.1966 0001105 115.3673 143.3523 15.73220576  1302,6727.837,91.532,350.445,348.958,0.0
52380.0,STARLINK-3793,PAYLOAD,2022-05-22 14:00:01,15.7318508,0.0001513,53.2141,323.8955,114.0085,322.5448,-0.00045888,-0.0006449,0.0,0 STARLINK-3793,1 52380U 22045BB  22142.58334491 -.00064490  00000-0 -45888-3 0  9990,2 52380  53.2141 323.8955 0001513 114.0085 322.5448 15.73185080  1300,6727.938,91.534,350.821,348.785,0.0
52380.0,STARLINK-3793,PAYLOAD,2022-05-22 22:00:01,15.731331,0.0001288,53.2138,322.2477,103.8974,61.6552,0.00045915,0.00064127,0.0,0 STARLINK-3793,1 52380U 22045BB  22142.91668981  .00064127  00000-0  45915-3 0  9997,2 52380  53.2138 322.2477 0001288 103.8974  61.6552 15.73133100  6173,6728.0859999999975,91.537,350.81699999999995,349.084,0.0
52380.0,STARLINK-3793,PAYLOAD,2022-05-23 14:00:01,15.73241833,0.0001279,53.2135,318.9472,115.7769,227.4524,-0.00065078,-0.00091132,0.0,0 STARLINK-3793,1 52380U 22045BB  22143.58334491 -.00091132  00000-0 -65078-3 0  9997,2 52380  53.2135 318.9472 0001279 115.7769 227.4524 15.73241833  1305,6727.776,91.531,350.501,348.78,0.0
52380.0,STARLINK-3793,PAYLOAD,2022-05-23 16:00:00,15.73233686,0.0001239,53.2134,318.5354,111.5637,343.9057,-0.00076915,-0.00107352,0.0,0 STARLINK-3793,1 52380U 22045BB  22143.66667824 -.00107352  00000-0 -76915-3 0  9999,2 52380  53.2134 318.5354 0001239 111.5637 343.9057 15.73233686  6298,6727.799,91.531,350.49800000000016,348.831,0.0
52380.0,STARLINK-3793,PAYLOAD,2022-05-23 22:00:01,15.73147364,0.0001088,53.2134,317.2993,105.9025,326.3752,0.00061438,0.00086298,0.0,0 STARLINK-3793,1 52380U 22045BB  22143.91668981  .00086298  00000-0  61438-3 0  9999,2 52380  53.2134 317.2993 0001088 105.9025 326.3752 15.73147364  6332,6728.045,91.536,350.642,349.17800000000005,0.0
52380.0,STARLINK-3793,PAYLOAD,2022-05-24 04:00:00,15.73146319,0.0001035,53.2169,316.06,120.0866,288.6886,0.00068837,0.00096884,0.0,0 STARLINK-3793,1 52380U 22045BB  22144.16667824  .00096884  00000-0  68837-3 0  9994,2 52380  53.2169 316.0600 0001035 120.0866 288.6886 15.73146319  6376,6728.0480000000025,91.536,350.61,349.217,0.0
52380.0,STARLINK-3793,PAYLOAD,2022-05-24 14:00:01,15.73218858,0.0001173,53.2141,313.9985,110.4738,139.6321,-0.00020676,-0.00029558,0.0,0 STARLINK-3793,1 52380U 22045BB  22144.58334491 -.00029558  00000-0 -20676-3 0  9996,2 52380  53.2141 313.9985 0001173 110.4738 139.6321 15.73218858  6436,6727.840999999999,91.532,350.496,348.917,0.0
52380.0,STARLINK-3793,PAYLOAD,2022-05-24 22:00:00,15.73155976,9.49e-05,53.2133,312.3502,95.6676,243.4,0.0006907,0.00097259,0.0,0 STARLINK-3793,1 52380U 22045BB  22144.91667824  .00097259  00000-0  69070-3 0  9994,2 52380  53.2133 312.3502 0000949  95.6676 243.4000 15.73155976  1300,6728.021,91.536,350.524,349.247,0.0
